{
  "type": "FeatureCollection",
  "features": [
    {
      "type": "Feature",
      "properties": {
        "norad_id": 30334,
        "name": "FENGYUN 1C DEB",
        "group": "fengyun-1c-debris",
        "lat": -60.93226158228119,
        "lon": 104.99255714620044,
        "alt_km": 843.8661036756321,
        "timestamp": "2025-12-14T20:40:32.047289+00:00",
        "meta_object_name": "FENGYUN 1C DEB",
        "meta_object_id": "1999-025AAV",
        "meta_epoch": "2025-12-14T05:45:50.127264",
        "meta_mean_motion": 13.92382522,
        "meta_eccentricity": 0.01447848,
        "meta_inclination": 99.0209,
        "meta_ra_of_asc_node": 87.7816,
        "meta_arg_of_pericenter": 337.7972,
        "meta_mean_anomaly": 88.3139,
        "meta_ephemeris_type": 0,
        "meta_classification_type": "U",
        "meta_norad_cat_id": 30334,
        "meta_element_set_no": 999,
        "meta_rev_at_epoch": 95242,
        "meta_bstar": 0.0014249326,
        "meta_mean_motion_dot": 1.952e-05,
        "meta_mean_motion_ddot": 0,
        "tle_line1": "1 30334U 99025AAV 25348.24016351  .00001952  00000+0  14249-2 0  9990",
        "tle_line2": "2 30334  99.0209  87.7816 0144784 337.7972  88.3139 13.92382522952428"
      },
      "geometry": {
        "type": "Point",
        "coordinates": [
          104.99255714620044,
          -60.93226158228119
        ]
      }
    },
    {
      "type": "Feature",
      "properties": {
        "norad_id": 30335,
        "name": "FENGYUN 1C DEB",
        "group": "fengyun-1c-debris",
        "lat": -38.28530326159813,
        "lon": 152.9976337032092,
        "alt_km": 899.4186114943914,
        "timestamp": "2025-12-14T20:40:32.047299+00:00",
        "meta_object_name": "FENGYUN 1C DEB",
        "meta_object_id": "1999-025AAW",
        "meta_epoch": "2025-12-14T06:01:15.407328",
        "meta_mean_motion": 14.0136159,
        "meta_eccentricity": 0.01328533,
        "meta_inclination": 98.9049,
        "meta_ra_of_asc_node": 339.5106,
        "meta_arg_of_pericenter": 127.318,
        "meta_mean_anomaly": 251.1366,
        "meta_ephemeris_type": 0,
        "meta_classification_type": "U",
        "meta_norad_cat_id": 30335,
        "meta_element_set_no": 999,
        "meta_rev_at_epoch": 96612,
        "meta_bstar": 9.2276917e-05,
        "meta_mean_motion_dot": 1.08e-06,
        "meta_mean_motion_ddot": 0,
        "tle_line1": "1 30335U 99025AAW 25348.25087277  .00000108  00000+0  92277-4 0  9998",
        "tle_line2": "2 30335  98.9049 339.5106 0132853 127.3180 251.1366 14.01361590966124"
      },
      "geometry": {
        "type": "Point",
        "coordinates": [
          152.9976337032092,
          -38.28530326159813
        ]
      }
    },
    {
      "type": "Feature",
      "properties": {
        "norad_id": 30336,
        "name": "FENGYUN 1C DEB",
        "group": "fengyun-1c-debris",
        "lat": -18.539047117577024,
        "lon": -173.1603317068222,
        "alt_km": 862.7561729263107,
        "timestamp": "2025-12-14T20:40:32.047309+00:00",
        "meta_object_name": "FENGYUN 1C DEB",
        "meta_object_id": "1999-025AAX",
        "meta_epoch": "2025-12-14T07:58:26.651424",
        "meta_mean_motion": 14.19308015,
        "meta_eccentricity": 0.00434636,
        "meta_inclination": 98.6005,
        "meta_ra_of_asc_node": 9.2351,
        "meta_arg_of_pericenter": 4.0189,
        "meta_mean_anomaly": 12.1891,
        "meta_ephemeris_type": 0,
        "meta_classification_type": "U",
        "meta_norad_cat_id": 30336,
        "meta_element_set_no": 999,
        "meta_rev_at_epoch": 97625,
        "meta_bstar": 0.00043719597,
        "meta_mean_motion_dot": 8.84e-06,
        "meta_mean_motion_ddot": 0,
        "tle_line1": "1 30336U 99025AAX 25348.33225291  .00000884  00000+0  43720-3 0  9997",
        "tle_line2": "2 30336  98.6005   9.2351 0043463   4.0189  12.1891 14.19308015976250"
      },
      "geometry": {
        "type": "Point",
        "coordinates": [
          -173.1603317068222,
          -18.539047117577024
        ]
      }
    },
    {
      "type": "Feature",
      "properties": {
        "norad_id": 30338,
        "name": "FENGYUN 1C DEB",
        "group": "fengyun-1c-debris",
        "lat": 71.70576702216644,
        "lon": 31.82032966764523,
        "alt_km": 799.955034220663,
        "timestamp": "2025-12-14T20:40:32.047319+00:00",
        "meta_object_name": "FENGYUN 1C DEB",
        "meta_object_id": "1999-025AAZ",
        "meta_epoch": "2025-12-14T03:59:42.118944",
        "meta_mean_motion": 14.47548388,
        "meta_eccentricity": 0.02720112,
        "meta_inclination": 98.4596,
        "meta_ra_of_asc_node": 57.8787,
        "meta_arg_of_pericenter": 189.5461,
        "meta_mean_anomaly": 227.3004,
        "meta_ephemeris_type": 0,
        "meta_classification_type": "U",
        "meta_norad_cat_id": 30338,
        "meta_element_set_no": 999,
        "meta_rev_at_epoch": 98165,
        "meta_bstar": 0.001242573,
        "meta_mean_motion_dot": 7.244e-05,
        "meta_mean_motion_ddot": 0,
        "tle_line1": "1 30338U 99025AAZ 25348.16645971  .00007244  00000+0  12426-2 0  9996",
        "tle_line2": "2 30338  98.4596  57.8787 0272011 189.5461 227.3004 14.47548388981658"
      },
      "geometry": {
        "type": "Point",
        "coordinates": [
          31.82032966764523,
          71.70576702216644
        ]
      }
    },
    {
      "type": "Feature",
      "properties": {
        "norad_id": 30339,
        "name": "FENGYUN 1C DEB",
        "group": "fengyun-1c-debris",
        "lat": -48.66483957563924,
        "lon": -94.96418791702023,
        "alt_km": 783.9155156969446,
        "timestamp": "2025-12-14T20:40:32.047329+00:00",
        "meta_object_name": "FENGYUN 1C DEB",
        "meta_object_id": "1999-025ABA",
        "meta_epoch": "2025-12-14T06:30:22.572576",
        "meta_mean_motion": 14.38194271,
        "meta_eccentricity": 0.0020286,
        "meta_inclination": 98.9733,
        "meta_ra_of_asc_node": 94.7679,
        "meta_arg_of_pericenter": 80.1799,
        "meta_mean_anomaly": 334.1008,
        "meta_ephemeris_type": 0,
        "meta_classification_type": "U",
        "meta_norad_cat_id": 30339,
        "meta_element_set_no": 999,
        "meta_rev_at_epoch": 97449,
        "meta_bstar": 0.0027237877,
        "meta_mean_motion_dot": 8.252e-05,
        "meta_mean_motion_ddot": 0,
        "tle_line1": "1 30339U 99025ABA 25348.27109459  .00008252  00000+0  27238-2 0  9992",
        "tle_line2": "2 30339  98.9733  94.7679 0020286  80.1799 334.1008 14.38194271974495"
      },
      "geometry": {
        "type": "Point",
        "coordinates": [
          -94.96418791702023,
          -48.66483957563924
        ]
      }
    },
    {
      "type": "Feature",
      "properties": {
        "norad_id": 30340,
        "name": "FENGYUN 1C DEB",
        "group": "fengyun-1c-debris",
        "lat": -20.410098416502045,
        "lon": -137.81146294089783,
        "alt_km": 848.1424689613195,
        "timestamp": "2025-12-14T20:40:32.047339+00:00",
        "meta_object_name": "FENGYUN 1C DEB",
        "meta_object_id": "1999-025ABB",
        "meta_epoch": "2025-12-14T02:53:55.576032",
        "meta_mean_motion": 14.04596196,
        "meta_eccentricity": 0.01461798,
        "meta_inclination": 99.0009,
        "meta_ra_of_asc_node": 44.8352,
        "meta_arg_of_pericenter": 131.0404,
        "meta_mean_anomaly": 284.6176,
        "meta_ephemeris_type": 0,
        "meta_classification_type": "U",
        "meta_norad_cat_id": 30340,
        "meta_element_set_no": 999,
        "meta_rev_at_epoch": 96800,
        "meta_bstar": 0.00017471716,
        "meta_mean_motion_dot": 2.64e-06,
        "meta_mean_motion_ddot": 0,
        "tle_line1": "1 30340U 99025ABB 25348.12078213  .00000264  00000+0  17472-3 0  9996",
        "tle_line2": "2 30340  99.0009  44.8352 0146179 131.0404 284.6176 14.04596196968008"
      },
      "geometry": {
        "type": "Point",
        "coordinates": [
          -137.81146294089783,
          -20.410098416502045
        ]
      }
    },
    {
      "type": "Feature",
      "properties": {
        "norad_id": 30341,
        "name": "FENGYUN 1C DEB",
        "group": "fengyun-1c-debris",
        "lat": -80.76853895407004,
        "lon": -35.1832305880834,
        "alt_km": 813.3094956037248,
        "timestamp": "2025-12-14T20:40:32.047348+00:00",
        "meta_object_name": "FENGYUN 1C DEB",
        "meta_object_id": "1999-025ABC",
        "meta_epoch": "2025-12-13T15:13:35.954688",
        "meta_mean_motion": 14.34116202,
        "meta_eccentricity": 0.00508522,
        "meta_inclination": 99.2188,
        "meta_ra_of_asc_node": 235.7298,
        "meta_arg_of_pericenter": 54.5927,
        "meta_mean_anomaly": 4.6664,
        "meta_ephemeris_type": 0,
        "meta_classification_type": "U",
        "meta_norad_cat_id": 30341,
        "meta_element_set_no": 999,
        "meta_rev_at_epoch": 97094,
        "meta_bstar": 0.0035597003,
        "meta_mean_motion_dot": 0.00010072,
        "meta_mean_motion_ddot": 0,
        "tle_line1": "1 30341U 99025ABC 25347.63444392  .00010072  00000+0  35597-2 0  9992",
        "tle_line2": "2 30341  99.2188 235.7298 0050852  54.5927   4.6664 14.34116202970947"
      },
      "geometry": {
        "type": "Point",
        "coordinates": [
          -35.1832305880834,
          -80.76853895407004
        ]
      }
    }
  ]
}